{
  "type": "FeatureCollection",
  "features": [
    {
      "type": "Feature",
      "properties": {
        "OBJECT_NAME": "PTD-4 (LISA-T)",
        "OBJECT_ID": "2024-149DB",
        "EPOCH": "2025-11-29T19:42:11.548800",
        "MEAN_MOTION": 15.12786949,
        "ECCENTRICITY": 0.0003701,
        "INCLINATION": 97.7136,
        "RA_OF_ASC_NODE": 54.3129,
        "ARG_OF_PERICENTER": 28.1231,
        "MEAN_ANOMALY": 332.0199,
        "EPHEMERIS_TYPE": 0,
        "CLASSIFICATION_TYPE": "U",
        "NORAD_CAT_ID": 60565,
        "ELEMENT_SET_NO": 999,
        "REV_AT_EPOCH": 7058,
        "BSTAR": 0.00099399,
        "MEAN_MOTION_DOT": 0.00017407,
        "MEAN_MOTION_DDOT": 0,
        "norad_id": 60565,
        "name": "PTD-4 (LISA-T)",
        "group": "active",
        "longitude_deg": NaN,
        "latitude_deg": NaN,
        "alt_km": NaN,
        "orbit_class": "HEO",
        "timestamp": "2025-11-30T05:40:21.673503+00:00"
      },
      "geometry": {
        "type": "Point",
        "coordinates": [
          NaN,
          NaN
        ]
      }
    },
    {
      "type": "Feature",
      "properties": {
        "OBJECT_NAME": "PICO-02G027",
        "OBJECT_ID": "2024-149DC",
        "EPOCH": "2025-11-29T17:34:19.054272",
        "MEAN_MOTION": 15.44404626,
        "ECCENTRICITY": 0.0002199,
        "INCLINATION": 97.6923,
        "RA_OF_ASC_NODE": 60.8625,
        "ARG_OF_PERICENTER": 268.0899,
        "MEAN_ANOMALY": 92.0097,
        "EPHEMERIS_TYPE": 0,
        "CLASSIFICATION_TYPE": "U",
        "NORAD_CAT_ID": 60566,
        "ELEMENT_SET_NO": 999,
        "REV_AT_EPOCH": 7105,
        "BSTAR": 0.0029912,
        "MEAN_MOTION_DOT": 0.00140462,
        "MEAN_MOTION_DDOT": 0,
        "norad_id": 60566,
        "name": "PICO-02G027",
        "group": "active",
        "longitude_deg": NaN,
        "latitude_deg": NaN,
        "alt_km": NaN,
        "orbit_class": "HEO",
        "timestamp": "2025-11-30T05:40:21.673508+00:00"
      },
      "geometry": {
        "type": "Point",
        "coordinates": [
          NaN,
          NaN
        ]
      }
    },
    {
      "type": "Feature",
      "properties": {
        "OBJECT_NAME": "PICO-02F026",
        "OBJECT_ID": "2024-149DD",
        "EPOCH": "2025-11-29T19:58:30.794304",
        "MEAN_MOTION": 15.4449813,
        "ECCENTRICITY": 0.0002541,
        "INCLINATION": 97.6994,
        "RA_OF_ASC_NODE": 61.3231,
        "ARG_OF_PERICENTER": 262.9225,
        "MEAN_ANOMALY": 97.1734,
        "EPHEMERIS_TYPE": 0,
        "CLASSIFICATION_TYPE": "U",
        "NORAD_CAT_ID": 60567,
        "ELEMENT_SET_NO": 999,
        "REV_AT_EPOCH": 7106,
        "BSTAR": 0.0029452,
        "MEAN_MOTION_DOT": 0.00138707,
        "MEAN_MOTION_DDOT": 0,
        "norad_id": 60567,
        "name": "PICO-02F026",
        "group": "active",
        "longitude_deg": NaN,
        "latitude_deg": NaN,
        "alt_km": NaN,
        "orbit_class": "HEO",
        "timestamp": "2025-11-30T05:40:21.673516+00:00"
      },
      "geometry": {
        "type": "Point",
        "coordinates": [
          NaN,
          NaN
        ]
      }
    },
    {
      "type": "Feature",
      "properties": {
        "OBJECT_NAME": "PICO-02I029",
        "OBJECT_ID": "2024-149DE",
        "EPOCH": "2025-11-29T05:57:57.303360",
        "MEAN_MOTION": 15.43620786,
        "ECCENTRICITY": 0.00019392,
        "INCLINATION": 97.6926,
        "RA_OF_ASC_NODE": 60.2596,
        "ARG_OF_PERICENTER": 268.9254,
        "MEAN_ANOMALY": 91.1771,
        "EPHEMERIS_TYPE": 0,
        "CLASSIFICATION_TYPE": "U",
        "NORAD_CAT_ID": 60568,
        "ELEMENT_SET_NO": 999,
        "REV_AT_EPOCH": 7096,
        "BSTAR": 0.0028284821,
        "MEAN_MOTION_DOT": 0.00129165,
        "MEAN_MOTION_DDOT": 0,
        "norad_id": 60568,
        "name": "PICO-02I029",
        "group": "active",
        "longitude_deg": NaN,
        "latitude_deg": NaN,
        "alt_km": NaN,
        "orbit_class": "HEO",
        "timestamp": "2025-11-30T05:40:21.673522+00:00"
      },
      "geometry": {
        "type": "Point",
        "coordinates": [
          NaN,
          NaN
        ]
      }
    },
    {
      "type": "Feature",
      "properties": {
        "OBJECT_NAME": "PICO-02D024",
        "OBJECT_ID": "2024-149DF",
        "EPOCH": "2025-11-29T19:22:26.018112",
        "MEAN_MOTION": 15.45147801,
        "ECCENTRICITY": 0.0002641,
        "INCLINATION": 97.6986,
        "RA_OF_ASC_NODE": 61.3482,
        "ARG_OF_PERICENTER": 268.3247,
        "MEAN_ANOMALY": 91.7698,
        "EPHEMERIS_TYPE": 0,
        "CLASSIFICATION_TYPE": "U",
        "NORAD_CAT_ID": 60569,
        "ELEMENT_SET_NO": 999,
        "REV_AT_EPOCH": 7106,
        "BSTAR": 0.0030597,
        "MEAN_MOTION_DOT": 0.0014748,
        "MEAN_MOTION_DDOT": 0,
        "norad_id": 60569,
        "name": "PICO-02D024",
        "group": "active",
        "longitude_deg": NaN,
        "latitude_deg": NaN,
        "alt_km": NaN,
        "orbit_class": "HEO",
        "timestamp": "2025-11-30T05:40:21.673528+00:00"
      },
      "geometry": {
        "type": "Point",
        "coordinates": [
          NaN,
          NaN
        ]
      }
    },
    {
      "type": "Feature",
      "properties": {
        "OBJECT_NAME": "PICO-02H028",
        "OBJECT_ID": "2024-149DG",
        "EPOCH": "2025-11-29T19:06:35.402112",
        "MEAN_MOTION": 15.43352723,
        "ECCENTRICITY": 0.0002058,
        "INCLINATION": 97.693,
        "RA_OF_ASC_NODE": 60.7643,
        "ARG_OF_PERICENTER": 261.1676,
        "MEAN_ANOMALY": 98.9338,
        "EPHEMERIS_TYPE": 0,
        "CLASSIFICATION_TYPE": "U",
        "NORAD_CAT_ID": 60570,
        "ELEMENT_SET_NO": 999,
        "REV_AT_EPOCH": 7104,
        "BSTAR": 0.0029785,
        "MEAN_MOTION_DOT": 0.00134903,
        "MEAN_MOTION_DDOT": 0,
        "norad_id": 60570,
        "name": "PICO-02H028",
        "group": "active",
        "longitude_deg": NaN,
        "latitude_deg": NaN,
        "alt_km": NaN,
        "orbit_class": "HEO",
        "timestamp": "2025-11-30T05:40:21.673536+00:00"
      },
      "geometry": {
        "type": "Point",
        "coordinates": [
          NaN,
          NaN
        ]
      }
    },
    {
      "type": "Feature",
      "properties": {
        "OBJECT_NAME": "PICO-02B022",
        "OBJECT_ID": "2024-149DH",
        "EPOCH": "2025-11-29T19:33:52.670016",
        "MEAN_MOTION": 15.77160011,
        "ECCENTRICITY": 0.0006992,
        "INCLINATION": 97.6759,
        "RA_OF_ASC_NODE": 64.97,
        "ARG_OF_PERICENTER": 287.0805,
        "MEAN_ANOMALY": 72.9694,
        "EPHEMERIS_TYPE": 0,
        "CLASSIFICATION_TYPE": "U",
        "NORAD_CAT_ID": 60571,
        "ELEMENT_SET_NO": 999,
        "REV_AT_EPOCH": 7130,
        "BSTAR": 0.0045847,
        "MEAN_MOTION_DOT": 0.00820931,
        "MEAN_MOTION_DDOT": 0,
        "norad_id": 60571,
        "name": "PICO-02B022",
        "group": "active",
        "longitude_deg": NaN,
        "latitude_deg": NaN,
        "alt_km": NaN,
        "orbit_class": "HEO",
        "timestamp": "2025-11-30T05:40:21.673543+00:00"
      },
      "geometry": {
        "type": "Point",
        "coordinates": [
          NaN,
          NaN
        ]
      }
    },
    {
      "type": "Feature",
      "properties": {
        "OBJECT_NAME": "PICO-02E025",
        "OBJECT_ID": "2024-149DJ",
        "EPOCH": "2025-11-29T04:32:46.481568",
        "MEAN_MOTION": 15.57291341,
        "ECCENTRICITY": 0.00060162,
        "INCLINATION": 97.7039,
        "RA_OF_ASC_NODE": 62.7467,
        "ARG_OF_PERICENTER": 274.9269,
        "MEAN_ANOMALY": 85.1299,
        "EPHEMERIS_TYPE": 0,
        "CLASSIFICATION_TYPE": "U",
        "NORAD_CAT_ID": 60572,
        "ELEMENT_SET_NO": 999,
        "REV_AT_EPOCH": 7107,
        "BSTAR": 0.0038693864,
        "MEAN_MOTION_DOT": 0.00292328,
        "MEAN_MOTION_DDOT": 0,
        "norad_id": 60572,
        "name": "PICO-02E025",
        "group": "active",
        "longitude_deg": NaN,
        "latitude_deg": NaN,
        "alt_km": NaN,
        "orbit_class": "HEO",
        "timestamp": "2025-11-30T05:40:21.673549+00:00"
      },
      "geometry": {
        "type": "Point",
        "coordinates": [
          NaN,
          NaN
        ]
      }
    }
  ]
}