PTD-4 (LISA-T)          
1 60565U 24149DB  25333.82096700  .00017407  00000+0  99399-3 0  9990
2 60565  97.7136  54.3129 0003701  28.1231 332.0199 15.12786949 70588
PICO-02G027             
1 60566U 24149DC  25333.73216498  .00140462  00000+0  29912-2 0  9990
2 60566  97.6923  60.8625 0002199 268.0899  92.0097 15.44404626 71057
PICO-02F026             
1 60567U 24149DD  25333.83230086  .00138707  00000+0  29452-2 0  9999
2 60567  97.6994  61.3231 0002541 262.9225  97.1734 15.44498130 71060
PICO-02I029             
1 60568U 24149DE  25333.24857990  .00129165  00000+0  28285-2 0  9995
2 60568  97.6926  60.2596 0001939 268.9254  91.1771 15.43620786 70962
PICO-02D024             
1 60569U 24149DF  25333.80724558  .00147480  00000+0  30597-2 0  9990
2 60569  97.6986  61.3482 0002641 268.3247  91.7698 15.45147801 71062
PICO-02H028             
1 60570U 24149DG  25333.79624308  .00134903  00000+0  29785-2 0  9995
2 60570  97.6930  60.7643 0002058 261.1676  98.9338 15.43352723 71041
PICO-02B022             
1 60571U 24149DH  25333.81519294  .00820931  00000+0  45847-2 0  9996
2 60571  97.6759  64.9700 0006992 287.0805  72.9694 15.77160011 71303
PICO-02E025             
1 60572U 24149DJ  25333.18942687  .00292328  00000+0  38694-2 0  9998
2 60572  97.7039  62.7467 0006016 274.9269  85.1299 15.57291341 71078
